$$SOE
2461288.500000000, A.D. 2026-Sep-05 00:00:00.0000, 4.535617592429729E+08, -5.530183011093390E+08, -1.573291598878204E+08,
2461295.500000000, A.D. 2026-Sep-12 00:00:00.0000, 4.588386442644226E+08, -5.482411352634944E+08, -1.578586363624144E+08,
2461302.500000000, A.D. 2026-Sep-19 00:00:00.0000, 4.640587929336290E+08, -5.433961814899638E+08, -1.583685829866124E+08,
2461309.500000000, A.D. 2026-Sep-26 00:00:00.0000, 4.692215083994194E+08, -5.384839823869120E+08, -1.588589195555584E+08,
2461316.500000000, A.D. 2026-Oct-03 00:00:00.0000, 4.743260951998931E+08, -5.335050844744020E+08, -1.593295665125480E+08,
2461323.500000000, A.D. 2026-Oct-10 00:00:00.0000, 4.793718591679924E+08, -5.284600381465398E+08, -1.597804449346925E+08,
2461330.500000000, A.D. 2026-Oct-17 00:00:00.0000, 4.843581073040714E+08, -5.233493976997091E+08, -1.602114765229638E+08,
2461337.500000000, A.D. 2026-Oct-24 00:00:00.0000, 4.892841476398020E+08, -5.181737214595905E+08, -1.606225836006358E+08,
2461344.500000000, A.D. 2026-Oct-31 00:00:00.0000, 4.941492891921057E+08, -5.129335720736730E+08, -1.610136891345012E+08,
2461351.500000000, A.D. 2026-Nov-07 00:00:00.0000, 4.989528423461274E+08, -5.076295168951232E+08, -1.613847168037210E+08,
2461358.500000000, A.D. 2026-Nov-14 00:00:00.0000, 5.036941198682292E+08, -5.022621275706172E+08, -1.617355910620252E+08,
2461365.500000000, A.D. 2026-Nov-21 00:00:00.0000, 5.083724367373576E+08, -4.968319781504742E+08, -1.620662369711947E+08,
2461372.500000000, A.D. 2026-Nov-28 00:00:00.0000, 5.129871077965265E+08, -4.913396447292948E+08, -1.623765799598338E+08,
2461379.500000000, A.D. 2026-Dec-05 00:00:00.0000, 5.175374468437136E+08, -4.857857072732273E+08, -1.626665458926556E+08,
2461386.500000000, A.D. 2026-Dec-12 00:00:00.0000, 5.220227673271499E+08, -4.801707505227084E+08, -1.629360612108467E+08,
2461393.500000000, A.D. 2026-Dec-19 00:00:00.0000, 5.264423827578980E+08, -4.744953639643008E+08, -1.631850529696704E+08,
2461400.500000000, A.D. 2026-Dec-26 00:00:00.0000, 5.307956066973533E+08, -4.687601417397966E+08, -1.634134488309910E+08,
2461407.500000000, A.D. 2027-Jan-02 00:00:00.0000, 5.350817525952750E+08, -4.629656826836686E+08, -1.636211770514615E+08,
2461414.500000000, A.D. 2027-Jan-09 00:00:00.0000, 5.393001335947061E+08, -4.571125904689298E+08, -1.638081664753406E+08,
2461421.500000000, A.D. 2027-Jan-16 00:00:00.0000, 5.434500623380766E+08, -4.512014738528441E+08, -1.639743465343892E+08,
2461428.500000000, A.D. 2027-Jan-23 00:00:00.0000, 5.475308508190511E+08, -4.452329470623500E+08, -1.641196472622790E+08,
2461435.500000000, A.D. 2027-Jan-30 00:00:00.0000, 5.515418104662174E+08, -4.392076303671201E+08, -1.642439993446438E+08,
2461442.500000000, A.D. 2027-Feb-06 00:00:00.0000, 5.554822528817929E+08, -4.331261505003020E+08, -1.643473342160320E+08,
2461449.500000000, A.D. 2027-Feb-13 00:00:00.0000, 5.593514907737424E+08, -4.269891397074538E+08, -1.644295840620683E+08,
2461456.500000000, A.D. 2027-Feb-20 00:00:00.0000, 5.631488367163351E+08, -4.207972342150751E+08, -1.644906815749481E+08,
2461463.500000000, A.D. 2027-Feb-27 00:00:00.0000, 5.668736011339623E+08, -4.145510753325994E+08, -1.645305598531134E+08,
2461470.500000000, A.D. 2027-Mar-06 00:00:00.0000, 5.705250925256202E+08, -4.082513112651326E+08, -1.645491525649448E+08,
2461477.500000000, A.D. 2027-Mar-13 00:00:00.0000, 5.741026183297045E+08, -4.018985975874361E+08, -1.645463940624456E+08,
2461484.500000000, A.D. 2027-Mar-20 00:00:00.0000, 5.776054852997893E+08, -3.954935972139424E+08, -1.645222194097988E+08,
2461491.500000000, A.D. 2027-Mar-27 00:00:00.0000, 5.810329995935056E+08, -3.890369804138967E+08, -1.644765643903946E+08,
2461498.500000000, A.D. 2027-Apr-03 00:00:00.0000, 5.843844667775235E+08, -3.825294249195130E+08, -1.644093655149994E+08,
2461505.500000000, A.D. 2027-Apr-10 00:00:00.0000, 5.876591918099400E+08, -3.759716161042440E+08, -1.643205600349154E+08,
2461512.500000000, A.D. 2027-Apr-17 00:00:00.0000, 5.908564790221313E+08, -3.693642472456308E+08, -1.642100859633780E+08,
2461519.500000000, A.D. 2027-Apr-24 00:00:00.0000, 5.939756321791507E+08, -3.627080199349775E+08, -1.640778821175260E+08,
2461526.500000000, A.D. 2027-May-01 00:00:00.0000, 5.970159549181209E+08, -3.560036446059548E+08, -1.639238882060623E+08,
2461533.500000000, A.D. 2027-May-08 00:00:00.0000, 5.999767518720143E+08, -3.492518404335196E+08, -1.637480449295605E+08,
2461540.500000000, A.D. 2027-May-15 00:00:00.0000, 6.028573289822544E+08, -3.424533336496435E+08, -1.635502938782376E+08,
2461547.500000000, A.D. 2027-May-22 00:00:00.0000, 6.056569914365662E+08, -3.356088568676266E+08, -1.633305772956305E+08,
2461554.500000000, A.D. 2027-May-29 00:00:00.0000, 6.083750425879881E+08, -3.287191508832721E+08, -1.630888381358986E+08,
2461561.500000000, A.D. 2027-Jun-05 00:00:00.0000, 6.110107847400571E+08, -3.217849658210426E+08, -1.628250202399133E+08,
2461568.500000000, A.D. 2027-Jun-12 00:00:00.0000, 6.135635197910570E+08, -3.148070611935174E+08, -1.625390684107473E+08,
2461575.500000000, A.D. 2027-Jun-19 00:00:00.0000, 6.160325494066110E+08, -3.077862058094161E+08, -1.622309284345998E+08,
2461582.500000000, A.D. 2027-Jun-26 00:00:00.0000, 6.184171750002254E+08, -3.007231777917250E+08, -1.619005470940360E+08,
2461589.500000000, A.D. 2027-Jul-03 00:00:00.0000, 6.207166976540412E+08, -2.936187646977995E+08, -1.615478721848159E+08,
2461596.500000000, A.D. 2027-Jul-10 00:00:00.0000, 6.229304180167366E+08, -2.864737637328478E+08, -1.611728525387750E+08,
2461603.500000000, A.D. 2027-Jul-17 00:00:00.0000, 6.250576362150085E+08, -2.792889820957750E+08, -1.607754380590373E+08,
2461610.500000000, A.D. 2027-Jul-24 00:00:00.0000, 6.270976519350661E+08, -2.720652375202607E+08, -1.603555797867872E+08,
2461617.500000000, A.D. 2027-Jul-31 00:00:00.0000, 6.290497650855646E+08, -2.648033587754977E+08, -1.599132300178331E+08,
2461624.500000000, A.D. 2027-Aug-07 00:00:00.0000, 6.309132768414797E+08, -2.575041849747520E+08, -1.594483423562699E+08,
2461631.500000000, A.D. 2027-Aug-14 00:00:00.0000, 6.326874887682797E+08, -2.501685639452035E+08, -1.589608715149207E+08,
2461638.500000000, A.D. 2027-Aug-21 00:00:00.0000, 6.343717006447893E+08, -2.427973530236128E+08, -1.584507731942337E+08,
2461645.500000000, A.D. 2027-Aug-28 00:00:00.0000, 6.359652104155896E+08, -2.353914210746007E+08, -1.579180042559263E+08,
2461652.500000000, A.D. 2027-Sep-04 00:00:00.0000, 6.374673150918711E+08, -2.279516492290618E+08, -1.573625228786322E+08,
2461659.500000000, A.D. 2027-Sep-11 00:00:00.0000, 6.388773112057192E+08, -2.204789310039719E+08, -1.567842886218644E+08,
2461666.500000000, A.D. 2027-Sep-18 00:00:00.0000, 6.401944949512928E+08, -2.129741724536884E+08, -1.561832624639487E+08,
2461673.500000000, A.D. 2027-Sep-25 00:00:00.0000, 6.414181622420380E+08, -2.054382924301450E+08, -1.555594068415792E+08,
2461680.500000000, A.D. 2027-Oct-02 00:00:00.0000, 6.425476087593188E+08, -1.978722229240497E+08, -1.549126856959744E+08,
2461687.500000000, A.D. 2027-Oct-09 00:00:00.0000, 6.435821300153265E+08, -1.902769094912284E+08, -1.542430645284092E+08,
2461694.500000000, A.D. 2027-Oct-16 00:00:00.0000, 6.445210214938673E+08, -1.826533118186590E+08, -1.535505104757275E+08,
2461701.500000000, A.D. 2027-Oct-23 00:00:00.0000, 6.453635791292689E+08, -1.750024044355553E+08, -1.528349924303917E+08,
2461708.500000000, A.D. 2027-Oct-30 00:00:00.0000, 6.461091004984663E+08, -1.673251769587455E+08, -1.520964811897381E+08,
2461715.500000000, A.D. 2027-Nov-06 00:00:00.0000, 6.467568855634921E+08, -1.596226327437672E+08, -1.513349494357609E+08,
2461722.500000000, A.D. 2027-Nov-13 00:00:00.0000, 6.473062349798272E+08, -1.518957880178900E+08, -1.505503715333224E+08,
2461729.500000000, A.D. 2027-Nov-20 00:00:00.0000, 6.477564488728526E+08, -1.441456736811479E+08, -1.497427235917053E+08,
2461736.500000000, A.D. 2027-Nov-27 00:00:00.0000, 6.481068277000290E+08, -1.363733368108085E+08, -1.489119836955516E+08,
2461743.500000000, A.D. 2027-Dec-04 00:00:00.0000, 6.483566731756089E+08, -1.285798409551981E+08, -1.480581320449263E+08,
2461750.500000000, A.D. 2027-Dec-11 00:00:00.0000, 6.485052887077497E+08, -1.207662661808640E+08, -1.471811510328268E+08,
2461757.500000000, A.D. 2027-Dec-18 00:00:00.0000, 6.485519796233082E+08, -1.129337092121930E+08, -1.462810253130394E+08,
2461764.500000000, A.D. 2027-Dec-25 00:00:00.0000, 6.484960533324897E+08, -1.050832836655735E+08, -1.453577418723684E+08,
2461771.500000000, A.D. 2028-Jan-01 00:00:00.0000, 6.483368194749596E+08, -9.721612036331746E+07, -1.444112901097223E+08,
$$EOE